[
    {
        "Altitude(m)": 605459.004652536,
        "Argument of Periapsis(deg)": 0.0,
        "Eccentricity": 0.0,
        "Inclination(deg)": 60.0,
        "Latitude(deg)": 27.988135603541703,
        "Longitude(deg)": -107.20139518199971,
        "Mean Anomaly(deg)": -327.2727,
        "RAAN(deg)": 335.0,
        "Satellite Name": "Test1 1476",
        "Satellite Number": 1476,
        "Semi-Major Axis(m)": 6980739.136638005,
        "Time(s)": 0
    },
    {
        "Altitude(m)": 605535.7953095698,
        "Argument of Periapsis(deg)": 0.00010418945913296404,
        "Eccentricity": 0.0,
        "Inclination(deg)": 60.0,
        "Latitude(deg)": 28.501264884090272,
        "Longitude(deg)": -106.844449932308,
        "Mean Anomaly(deg)": -326.65259385453817,
        "RAAN(deg)": 334.99957995086027,
        "Satellite Name": "Test1 1476",
        "Satellite Number": 1476,
        "Semi-Major Axis(m)": 6980739.136638005,
        "Time(s)": 10
    },
    {
        "Altitude(m)": 605614.2765913503,
        "Argument of Periapsis(deg)": 0.0002083789182659281,
        "Eccentricity": 0.0,
        "Inclination(deg)": 60.0,
        "Latitude(deg)": 29.013176640954402,
        "Longitude(deg)": -106.48363985517318,
        "Mean Anomaly(deg)": -326.03248770907635,
        "RAAN(deg)": 334.99915990172053,
        "Satellite Name": "Test1 1476",
        "Satellite Number": 1476,
        "Semi-Major Axis(m)": 6980739.136638005,
        "Time(s)": 20
    },
    {
        "Altitude(m)": 605694.3908058838,
        "Argument of Periapsis(deg)": 0.00031256837739889213,
        "Eccentricity": 0.0,
        "Inclination(deg)": 60.0,
        "Latitude(deg)": 29.523833601226368,
        "Longitude(deg)": -106.11885319495893,
        "Mean Anomaly(deg)": -325.41238156361453,
        "RAAN(deg)": 334.9987398525808,
        "Satellite Name": "Test1 1476",
        "Satellite Number": 1476,
        "Semi-Major Axis(m)": 6980739.136638005,
        "Time(s)": 30
    },
    {
        "Altitude(m)": 605776.0796518183,
        "Argument of Periapsis(deg)": 0.0004167578365318562,
        "Eccentricity": 0.0,
        "Inclination(deg)": 60.0,
        "Latitude(deg)": 30.033197495528658,
        "Longitude(deg)": -105.74997518973984,
        "Mean Anomaly(deg)": -324.7922754181527,
        "RAAN(deg)": 334.99831980344106,
        "Satellite Name": "Test1 1476",
        "Satellite Number": 1476,
        "Semi-Major Axis(m)": 6980739.136638005,
        "Time(s)": 40
    },
    {
        "Altitude(m)": 605859.2842487881,
        "Argument of Periapsis(deg)": 0.0005209472956648203,
        "Eccentricity": 0.0,
        "Inclination(deg)": 60.0,
        "Latitude(deg)": 30.541229019279843,
        "Longitude(deg)": -105.3768890124853,
        "Mean Anomaly(deg)": -324.17216927269084,
        "RAAN(deg)": 334.9978997543013,
        "Satellite Name": "Test1 1476",
        "Satellite Number": 1476,
        "Semi-Major Axis(m)": 6980739.136638005,
        "Time(s)": 50
    },
    {
        "Altitude(m)": 605943.9451680006,
        "Argument of Periapsis(deg)": 0.0006251367547977843,
        "Eccentricity": 0.0,
        "Inclination(deg)": 60.0,
        "Latitude(deg)": 31.047887792602555,
        "Longitude(deg)": -104.99947519919714,
        "Mean Anomaly(deg)": -323.552063127229,
        "RAAN(deg)": 334.99747970516154,
        "Satellite Name": "Test1 1476",
        "Satellite Number": 1476,
        "Semi-Major Axis(m)": 6980739.136638005,
        "Time(s)": 60
    },
    {
        "Altitude(m)": 606030.0024630412,
        "Argument of Periapsis(deg)": 0.0007293262139307483,
        "Eccentricity": 0.0,
        "Inclination(deg)": 60.0,
        "Latitude(deg)": 31.553132318832127,
        "Longitude(deg)": -104.61761107703599,
        "Mean Anomaly(deg)": -322.9319569817672,
        "RAAN(deg)": 334.9970596560218,
        "Satellite Name": "Test1 1476",
        "Satellite Number": 1476,
        "Semi-Major Axis(m)": 6980739.136638005,
        "Time(s)": 70
    },
    {
        "Altitude(m)": 606117.3957008708,
        "Argument of Periapsis(deg)": 0.0008335156730637124,
        "Eccentricity": 0.0,
        "Inclination(deg)": 60.0,
        "Latitude(deg)": 32.056919941588184,
        "Longitude(deg)": -104.23117170549226,
        "Mean Anomaly(deg)": -322.3118508363054,
        "RAAN(deg)": 334.99663960688207,
        "Satellite Name": "Test1 1476",
        "Satellite Number": 1476,
        "Semi-Major Axis(m)": 6980739.136638005,
        "Time(s)": 80
    },
    {
        "Altitude(m)": 606206.0639930229,
        "Argument of Periapsis(deg)": 0.0009377051321966765,
        "Eccentricity": 0.0,
        "Inclination(deg)": 60.0,
        "Latitude(deg)": 32.55920680036711,
        "Longitude(deg)": -103.84002930506657,
        "Mean Anomaly(deg)": -321.6917446908435,
        "RAAN(deg)": 334.99621955774234,
        "Satellite Name": "Test1 1476",
        "Satellite Number": 1476,
        "Semi-Major Axis(m)": 6980739.136638005,
        "Time(s)": 90
    },
    {
        "Altitude(m)": 606295.9460269616,
        "Argument of Periapsis(deg)": 0.0010418945913296407,
        "Eccentricity": 0.0,
        "Inclination(deg)": 60.0,
        "Latitude(deg)": 33.05994778461727,
        "Longitude(deg)": -103.44405268656497,
        "Mean Anomaly(deg)": -321.0716385453817,
        "RAAN(deg)": 334.9957995086026,
        "Satellite Name": "Test1 1476",
        "Satellite Number": 1476,
        "Semi-Major Axis(m)": 6980739.136638005,
        "Time(s)": 100
    },
    {
        "Altitude(m)": 606386.9800975954,
        "Argument of Periapsis(deg)": 0.0011460840504626045,
        "Eccentricity": 0.0,
        "Inclination(deg)": 60.0,
        "Latitude(deg)": 33.559096486262916,
        "Longitude(deg)": -103.04310819414212,
        "Mean Anomaly(deg)": -320.45153239991987,
        "RAAN(deg)": 334.99537945946287,
        "Satellite Name": "Test1 1476",
        "Satellite Number": 1476,
        "Semi-Major Axis(m)": 6980739.136638005,
        "Time(s)": 110
    },
    {
        "Altitude(m)": 606479.1041389446,
        "Argument of Periapsis(deg)": 0.0012502735095955685,
        "Eccentricity": 0.0,
        "Inclination(deg)": 60.0,
        "Latitude(deg)": 34.05660515063551,
        "Longitude(deg)": -102.6370591366428,
        "Mean Anomaly(deg)": -319.83142625445805,
        "RAAN(deg)": 334.99495941032313,
        "Satellite Name": "Test1 1476",
        "Satellite Number": 1476,
        "Semi-Major Axis(m)": 6980739.136638005,
        "Time(s)": 120
    },
    {
        "Altitude(m)": 606572.2557559034,
        "Argument of Periapsis(deg)": 0.0013544629687285324,
        "Eccentricity": 0.0,
        "Inclination(deg)": 60.0,
        "Latitude(deg)": 34.552424625784546,
        "Longitude(deg)": -102.22576522043582,
        "Mean Anomaly(deg)": -319.2113201089962,
        "RAAN(deg)": 334.99453936118334,
        "Satellite Name": "Test1 1476",
        "Satellite Number": 1476,
        "Semi-Major Axis(m)": 6980739.136638005,
        "Time(s)": 130
    },
    {
        "Altitude(m)": 606666.3722561393,
        "Argument of Periapsis(deg)": 0.0014586524278614966,
        "Eccentricity": 0.0,
        "Inclination(deg)": 60.0,
        "Latitude(deg)": 35.04650431013302,
        "Longitude(deg)": -101.80908349697819,
        "Mean Anomaly(deg)": -318.59121396353436,
        "RAAN(deg)": 334.9941193120436,
        "Satellite Name": "Test1 1476",
        "Satellite Number": 1476,
        "Semi-Major Axis(m)": 6980739.136638005,
        "Time(s)": 140
    },
    {
        "Altitude(m)": 606761.3906820497,
        "Argument of Periapsis(deg)": 0.0015628418869944607,
        "Eccentricity": 0.0,
        "Inclination(deg)": 60.0,
        "Latitude(deg)": 35.538792098451296,
        "Longitude(deg)": -101.38686779976383,
        "Mean Anomaly(deg)": -317.97110781807254,
        "RAAN(deg)": 334.99369926290393,
        "Satellite Name": "Test1 1476",
        "Satellite Number": 1476,
        "Semi-Major Axis(m)": 6980739.136638005,
        "Time(s)": 150
    },
    {
        "Altitude(m)": 606857.2478428405,
        "Argument of Periapsis(deg)": 0.0016670313461274247,
        "Eccentricity": 0.0,
        "Inclination(deg)": 60.0,
        "Latitude(deg)": 36.029234326124126,
        "Longitude(deg)": -100.95896818397489,
        "Mean Anomaly(deg)": -317.3510016726107,
        "RAAN(deg)": 334.99327921376414,
        "Satellite Name": "Test1 1476",
        "Satellite Number": 1476,
        "Semi-Major Axis(m)": 6980739.136638005,
        "Time(s)": 160
    },
    {
        "Altitude(m)": 606953.8803466235,
        "Argument of Periapsis(deg)": 0.0017712208052603888,
        "Eccentricity": 0.0,
        "Inclination(deg)": 60.0,
        "Latitude(deg)": 36.51777571169136,
        "Longitude(deg)": -100.52523188219578,
        "Mean Anomaly(deg)": -316.7308955271489,
        "RAAN(deg)": 334.9928591646244,
        "Satellite Name": "Test1 1476",
        "Satellite Number": 1476,
        "Semi-Major Axis(m)": 6980739.136638005,
        "Time(s)": 170
    },
    {
        "Altitude(m)": 607051.2246325709,
        "Argument of Periapsis(deg)": 0.001875410264393353,
        "Eccentricity": 0.0,
        "Inclination(deg)": 60.0,
        "Latitude(deg)": 37.00435929764678,
        "Longitude(deg)": -100.08550275098828,
        "Mean Anomaly(deg)": -316.110789381687,
        "RAAN(deg)": 334.9924391154847,
        "Satellite Name": "Test1 1476",
        "Satellite Number": 1476,
        "Semi-Major Axis(m)": 6980739.136638005,
        "Time(s)": 180
    },
    {
        "Altitude(m)": 607149.217003097,
        "Argument of Periapsis(deg)": 0.0019795997235263173,
        "Eccentricity": 0.0,
        "Inclination(deg)": 60.0,
        "Latitude(deg)": 37.4889263894845,
        "Longitude(deg)": -99.63962072179338,
        "Mean Anomaly(deg)": -315.49068323622527,
        "RAAN(deg)": 334.99201906634494,
        "Satellite Name": "Test1 1476",
        "Satellite Number": 1476,
        "Semi-Major Axis(m)": 6980739.136638005,
        "Time(s)": 190
    }
]